49196,ONEWEB-0327,2021,109.2,148.0,+,87.92,Active,1,LEO,Kazakhstan,UK,Commercial,Communications,Soyuz,1 49196U 21083L   24041.80007390  .00000033  00000+0  51438-4 0  9991,2 49196  87.9243 146.1044 0001746 119.6417 240.4889 13.18684757117027,13.18684757,0.0001746,LEO
49197,ONEWEB-0328,2021,109.63,148.0,+,87.9,Active,1,LEO,Kazakhstan,UK,Commercial,Communications,Soyuz,1 49197U 21083M   24042.14731446  .00000340  00000+0  89638-3 0  9999,2 49197  87.8993 130.8422 0001635 107.8824 252.2484 13.13470288119680,13.13470288,0.0001635,LEO
49198,ONEWEB-0331,2021,109.2,148.0,+,87.92,Active,1,LEO,Kazakhstan,UK,Commercial,Communications,Soyuz,1 49198U 21083N   24041.81984332  .00000063  00000+0  12821-3 0  9999,2 49198  87.9244 146.0818 0001551 111.0250 249.1049 13.18687664117016,13.18687664,0.0001551,LEO
49199,ONEWEB-0333,2021,109.63,148.0,+,87.9,Active,1,LEO,Kazakhstan,UK,Commercial,Communications,Soyuz,1 49199U 21083P   24041.76165527  .00000261  00000+0  68090-3 0  9990,2 49199  87.9003 130.9312 0001961 102.2786 257.8563 13.13471663118352,13.13471663,0.0001961,LEO
49200,ONEWEB-0334,2021,109.03,148.0,+,87.91,Active,1,LEO,Kazakhstan,UK,Commercial,Communications,Soyuz,1 49200U 21083Q   24041.61985716  .00000091  00000+0  19274-3 0  9998,2 49200  87.9138  85.1783 0002762  93.3084 266.8365 13.20770030123598,13.2077003,0.0002762,LEO
49201,ONEWEB-0335,2021,109.63,148.0,+,87.9,Active,1,LEO,Kazakhstan,UK,Commercial,Communications,Soyuz,1 49201U 21083R   24041.75689156 -.00007987  00000+0 -21912-1 0  9996,2 49201  87.9004 130.9202 0001343  96.3643 263.7639 13.13510817118360,13.13510817,0.0001343,LEO
49202,ONEWEB-0336,2021,109.63,148.0,+,87.9,Active,1,LEO,Kazakhstan,UK,Commercial,Communications,Soyuz,1 49202U 21083S   24042.18381006 -.00000119  00000+0 -36085-3 0  9997,2 49202  87.9004 130.8335 0001959 106.2052 253.9293 13.13469897119713,13.13469897,0.0001959,LEO
49203,ONEWEB-0337,2021,109.63,148.0,+,87.9,Active,1,LEO,Kazakhstan,UK,Commercial,Communications,Soyuz,1 49203U 21083T   24041.73613114 -.00000280  00000+0 -80033-3 0  9997,2 49203  87.9004 130.9208 0001637 105.2104 254.9206 13.13468984118354,13.13468984,0.0001637,LEO
